STARLINK-1372           
1 45543U 20025N   26068.38101215  .00002506  00000+0  96690-4 0  9999
2 45543  53.1606 102.4567 0001195  90.9639 269.1499 15.30207893324222
HAWK-11B                
1 62379U 24247C   26068.44730104  .00009093  00000+0  32842-3 0  9993
2 62379  45.0161 115.7610 0004690 333.0326  27.0314 15.28847070 67738
